{"type": "FeatureCollection", "features": [ {"type": "Feature", "properties": {"norad_id": 34833, "name": "IRIDIUM 33 DEB", "group": "iridium-33-debris", "lat": 23.99918949710872, "lon": 54.738615743271765, "alt_km": 717.3687699318125, "timestamp": "2025-12-07T18:50:17.100234+00:00", "meta": {"OBJECT_NAME": "IRIDIUM 33 DEB", "OBJECT_ID": "1997-051MH", "EPOCH": "2025-12-07T03:56:41.928288", "MEAN_MOTION": 14.52325542, "ECCENTRICITY": 0.0021724, "INCLINATION": 86.3933, "RA_OF_ASC_NODE": 53.3968, "ARG_OF_PERICENTER": 115.6412, "MEAN_ANOMALY": 266.3955, "EPHEMERIS_TYPE": 0, "CLASSIFICATION_TYPE": "U", "NORAD_CAT_ID": 34833, "ELEMENT_SET_NO": 999, "REV_AT_EPOCH": 87634, "BSTAR": 0.0013142121, "MEAN_MOTION_DOT": 5.381e-05, "MEAN_MOTION_DDOT": 0}, "tle": {"line1": "1 34833U 97051MH  25341.16437417  .00005381  00000+0  13142-2 0  9990", "line2": "2 34833  86.3933  53.3968 0021724 115.6412 266.3955 14.52325542876342"}}, "geometry": {"type": "Point", "coordinates": [54.738615743271765, 23.99918949710872]}}, {"type": "Feature", "properties": {"norad_id": 34870, "name": "IRIDIUM 33 DEB", "group": "iridium-33-debris", "lat": -70.4764480882045, "lon": -54.13380075883809, "alt_km": 648.0714033057802, "timestamp": "2025-12-07T18:50:17.100257+00:00", "meta": {"OBJECT_NAME": "IRIDIUM 33 DEB", "OBJECT_ID": "1997-051MQ", "EPOCH": "2025-12-07T06:26:26.157120", "MEAN_MOTION": 14.76261157, "ECCENTRICITY": 0.00154427, "INCLINATION": 86.3101, "RA_OF_ASC_NODE": 316.5889, "ARG_OF_PERICENTER": 203.0792, "MEAN_ANOMALY": 222.4695, "EPHEMERIS_TYPE": 0, "CLASSIFICATION_TYPE": "U", "NORAD_CAT_ID": 34870, "ELEMENT_SET_NO": 999, "REV_AT_EPOCH": 88830, "BSTAR": 0.0023910743, "MEAN_MOTION_DOT": 0.00016637, "MEAN_MOTION_DDOT": 0}, "tle": {"line1": "1 34870U 97051MQ  25341.26835830  .00016637  00000+0  23911-2 0  9994", "line2": "2 34870  86.3101 316.5889 0015442 203.0792 222.4695 14.76261157888309"}}, "geometry": {"type": "Point", "coordinates": [-54.13380075883809, -70.4764480882045]}}, {"type": "Feature", "properties": {"norad_id": 34896, "name": "IRIDIUM 33 DEB", "group": "iridium-33-debris", "lat": -49.38620833134188, "lon": -35.38692205294844, "alt_km": 676.4029699767489, "timestamp": "2025-12-07T18:50:17.100281+00:00", "meta": {"OBJECT_NAME": "IRIDIUM 33 DEB", "OBJECT_ID": "1997-051MY", "EPOCH": "2025-12-05T17:05:39.506784", "MEAN_MOTION": 14.66164731, "ECCENTRICITY": 0.00238307, "INCLINATION": 86.3282, "RA_OF_ASC_NODE": 329.837, "ARG_OF_PERICENTER": 240.5839, "MEAN_ANOMALY": 296.7988, "EPHEMERIS_TYPE": 0, "CLASSIFICATION_TYPE": "U", "NORAD_CAT_ID": 34896, "ELEMENT_SET_NO": 999, "REV_AT_EPOCH": 87516, "BSTAR": 0.0016597268, "MEAN_MOTION_DOT": 9.189e-05, "MEAN_MOTION_DDOT": 0}, "tle": {"line1": "1 34896U 97051MY  25339.71226281  .00009189  00000+0  16597-2 0  9999", "line2": "2 34896  86.3282 329.8370 0023830 240.5839 296.7988 14.66164731875165"}}, "geometry": {"type": "Point", "coordinates": [-35.38692205294844, -49.38620833134188]}}, {"type": "Feature", "properties": {"norad_id": 34926, "name": "IRIDIUM 33 DEB", "group": "iridium-33-debris", "lat": -69.59146948872353, "lon": -158.95104980240697, "alt_km": 692.1853511008167, "timestamp": "2025-12-07T18:50:17.100296+00:00", "meta": {"OBJECT_NAME": "IRIDIUM 33 DEB", "OBJECT_ID": "1997-051NF", "EPOCH": "2025-12-06T20:46:22.255104", "MEAN_MOTION": 14.54012124, "ECCENTRICITY": 0.00763819, "INCLINATION": 86.1315, "RA_OF_ASC_NODE": 10.9966, "ARG_OF_PERICENTER": 312.8142, "MEAN_ANOMALY": 168.3401, "EPHEMERIS_TYPE": 0, "CLASSIFICATION_TYPE": "U", "NORAD_CAT_ID": 34926, "ELEMENT_SET_NO": 999, "REV_AT_EPOCH": 86371, "BSTAR": 0.0091084702, "MEAN_MOTION_DOT": 0.00040121, "MEAN_MOTION_DDOT": 0}, "tle": {"line1": "1 34926U 97051NF  25340.86553536  .00040121  00000+0  91085-2 0  9993", "line2": "2 34926  86.1315  10.9966 0076381 312.8142 168.3401 14.54012124863719"}}, "geometry": {"type": "Point", "coordinates": [-158.95104980240697, -69.59146948872353]}}, {"type": "Feature", "properties": {"norad_id": 34985, "name": "IRIDIUM 33 DEB", "group": "iridium-33-debris", "lat": -53.59498890295138, "lon": -116.06822262038287, "alt_km": 744.7126952269182, "timestamp": "2025-12-07T18:50:17.100307+00:00", "meta": {"OBJECT_NAME": "IRIDIUM 33 DEB", "OBJECT_ID": "1997-051NR", "EPOCH": "2025-12-06T11:52:01.102944", "MEAN_MOTION": 14.41968492, "ECCENTRICITY": 0.00201435, "INCLINATION": 86.3705, "RA_OF_ASC_NODE": 59.544, "ARG_OF_PERICENTER": 241.43, "MEAN_ANOMALY": 137.5894, "EPHEMERIS_TYPE": 0, "CLASSIFICATION_TYPE": "U", "NORAD_CAT_ID": 34985, "ELEMENT_SET_NO": 999, "REV_AT_EPOCH": 87085, "BSTAR": 0.0014027, "MEAN_MOTION_DOT": 4.627e-05, "MEAN_MOTION_DDOT": 0}, "tle": {"line1": "1 34985U 97051NR  25340.49445721  .00004627  00000+0  14027-2 0  9995", "line2": "2 34985  86.3705  59.5440 0020143 241.4300 137.5894 14.41968492870854"}}, "geometry": {"type": "Point", "coordinates": [-116.06822262038287, -53.59498890295138]}}, {"type": "Feature", "properties": {"norad_id": 35051, "name": "IRIDIUM 33 DEB", "group": "iridium-33-debris", "lat": 66.52544893547172, "lon": 19.53415665642677, "alt_km": 721.1086136176664, "timestamp": "2025-12-07T18:50:17.100318+00:00", "meta": {"OBJECT_NAME": "IRIDIUM 33 DEB", "OBJECT_ID": "1997-051NX", "EPOCH": "2025-12-05T08:27:53.565120", "MEAN_MOTION": 14.47546386, "ECCENTRICITY": 0.00106363, "INCLINATION": 86.3242, "RA_OF_ASC_NODE": 12.0813, "ARG_OF_PERICENTER": 111.2483, "MEAN_ANOMALY": 248.9857, "EPHEMERIS_TYPE": 0, "CLASSIFICATION_TYPE": "U", "NORAD_CAT_ID": 35051, "ELEMENT_SET_NO": 999, "REV_AT_EPOCH": 86889, "BSTAR": 0.0012192117, "MEAN_MOTION_DOT": 4.506e-05, "MEAN_MOTION_DDOT": 0}, "tle": {"line1": "1 35051U 97051NX  25339.35270330  .00004506  00000+0  12192-2 0  9992", "line2": "2 35051  86.3242  12.0813 0010636 111.2483 248.9857 14.47546386868892"}}, "geometry": {"type": "Point", "coordinates": [19.53415665642677, 66.52544893547172]}}, {"type": "Feature", "properties": {"norad_id": 35052, "name": "IRIDIUM 33 DEB", "group": "iridium-33-debris", "lat": 17.704964636731187, "lon": 23.77406282938056, "alt_km": 762.404113867753, "timestamp": "2025-12-07T18:50:17.100328+00:00", "meta": {"OBJECT_NAME": "IRIDIUM 33 DEB", "OBJECT_ID": "1997-051NY", "EPOCH": "2025-12-07T02:03:39.660480", "MEAN_MOTION": 14.38482412, "ECCENTRICITY": 0.00136685, "INCLINATION": 86.3314, "RA_OF_ASC_NODE": 22.9, "ARG_OF_PERICENTER": 100.7655, "MEAN_ANOMALY": 259.5083, "EPHEMERIS_TYPE": 0, "CLASSIFICATION_TYPE": "U", "NORAD_CAT_ID": 35052, "ELEMENT_SET_NO": 999, "REV_AT_EPOCH": 87194, "BSTAR": 0.00033348424, "MEAN_MOTION_DOT": 1.039e-05, "MEAN_MOTION_DDOT": 0}, "tle": {"line1": "1 35052U 97051NY  25341.08587570  .00001039  00000+0  33348-3 0  9998", "line2": "2 35052  86.3314  22.9000 0013668 100.7655 259.5083 14.38482412871941"}}, "geometry": {"type": "Point", "coordinates": [23.77406282938056, 17.704964636731187]}}, {"type": "Feature", "properties": {"norad_id": 35080, "name": "IRIDIUM 33 DEB", "group": "iridium-33-debris", "lat": 73.23198116044854, "lon": 67.45867667986812, "alt_km": 631.1662263865464, "timestamp": "2025-12-07T18:50:17.100338+00:00", "meta": {"OBJECT_NAME": "IRIDIUM 33 DEB", "OBJECT_ID": "1997-051PF", "EPOCH": "2025-12-07T03:56:57.228000", "MEAN_MOTION": 14.84984073, "ECCENTRICITY": 0.00622366, "INCLINATION": 86.2081, "RA_OF_ASC_NODE": 55.0388, "ARG_OF_PERICENTER": 201.0012, "MEAN_ANOMALY": 158.8655, "EPHEMERIS_TYPE": 0, "CLASSIFICATION_TYPE": "U", "NORAD_CAT_ID": 35080, "ELEMENT_SET_NO": 999, "REV_AT_EPOCH": 69605, "BSTAR": 0.011261596, "MEAN_MOTION_DOT": 0.00100643, "MEAN_MOTION_DDOT": 0}, "tle": {"line1": "1 35080U 97051PF  25341.16455125  .00100643  00000+0  11262-1 0  9998", "line2": "2 35080  86.2081  55.0388 0062236 201.0012 158.8655 14.84984073696059"}}, "geometry": {"type": "Point", "coordinates": [67.45867667986812, 73.23198116044854]}}, {"type": "Feature", "properties": {"norad_id": 35297, "name": "IRIDIUM 33 DEB", "group": "iridium-33-debris", "lat": 13.352937568194427, "lon": -115.9847031459556, "alt_km": 730.8913570699706, "timestamp": "2025-12-07T18:50:17.100348+00:00", "meta": {"OBJECT_NAME": "IRIDIUM 33 DEB", "OBJECT_ID": "1997-051PM", "EPOCH": "2025-12-06T00:31:29.302752", "MEAN_MOTION": 14.45108459, "ECCENTRICITY": 0.00170329, "INCLINATION": 86.3867, "RA_OF_ASC_NODE": 65.6268, "ARG_OF_PERICENTER": 161.2449, "MEAN_ANOMALY": 198.9384, "EPHEMERIS_TYPE": 0, "CLASSIFICATION_TYPE": "U", "NORAD_CAT_ID": 35297, "ELEMENT_SET_NO": 999, "REV_AT_EPOCH": 70329, "BSTAR": 0.0012426888, "MEAN_MOTION_DOT": 4.371e-05, "MEAN_MOTION_DDOT": 0}, "tle": {"line1": "1 35297U 97051PM  25340.02186693  .00004371  00000+0  12427-2 0  9999", "line2": "2 35297  86.3867  65.6268 0017032 161.2449 198.9384 14.45108459703293"}}, "geometry": {"type": "Point", "coordinates": [-115.9847031459556, 13.352937568194427]}}, {"type": "Feature", "properties": {"norad_id": 35299, "name": "IRIDIUM 33 DEB", "group": "iridium-33-debris", "lat": 3.4578850082281956, "lon": -144.8812664013394, "alt_km": 736.2107375160076, "timestamp": "2025-12-07T18:50:17.100361+00:00", "meta": {"OBJECT_NAME": "IRIDIUM 33 DEB", "OBJECT_ID": "1997-051PP", "EPOCH": "2025-12-06T14:24:15.119136", "MEAN_MOTION": 14.40815495, "ECCENTRICITY": 0.0058804, "INCLINATION": 86.2886, "RA_OF_ASC_NODE": 35.859, "ARG_OF_PERICENTER": 121.9037, "MEAN_ANOMALY": 32.622, "EPHEMERIS_TYPE": 0, "CLASSIFICATION_TYPE": "U", "NORAD_CAT_ID": 35299, "ELEMENT_SET_NO": 999, "REV_AT_EPOCH": 86242, "BSTAR": 0.0014232955, "MEAN_MOTION_DOT": 4.671e-05, "MEAN_MOTION_DDOT": 0}, "tle": {"line1": "1 35299U 97051PP  25340.60017499  .00004671  00000+0  14233-2 0  9992", "line2": "2 35299  86.2886  35.8590 0058804 121.9037  32.6220 14.40815495862424"}}, "geometry": {"type": "Point", "coordinates": [-144.8812664013394, 3.4578850082281956]}}]}